GLOBALSTAR M063         
1 26081U 00008A   25329.45008773 -.00000080  00000+0  40657-4 0  9994
2 26081  51.9975  46.8586 0004238 257.0421 185.6671 11.86177810176716
GLOBALSTAR M062         
1 26082U 00008B   25329.37837025 -.00000077  00000+0  15229-3 0  9998
2 26082  51.9868 341.7634 0007325  96.5075  11.3194 12.43477516516678
GLOBALSTAR M060         
1 26083U 00008C   25329.38260646 -.00000117  00000+0 -26053-3 0  9992
2 26083  52.0039 324.5649 0003439  89.2277  58.6485 12.17667438172008
GLOBALSTAR M064         
1 26084U 00008D   25329.44610122 -.00000072  00000+0  16036-3 0  9997
2 26084  51.9994 143.7979 0001968  47.1504 312.9494 11.88539327186277
GLOBALSTAR M065         
1 31571U 07020A   25329.56068198 -.00000062  00000+0  23037-3 0  9996
2 31571  51.9884  95.0913 0009121 307.3766 133.9135 12.62014827853785
GLOBALSTAR M069         
1 31573U 07020C   25329.43324833 -.00000078  00000+0  13826-3 0  9997
2 31573  52.0014 108.8254 0002811  96.1962 297.8992 12.23463939853864
GLOBALSTAR M072         
1 31574U 07020D   25329.33390140 -.00000064  00000+0  27824-3 0  9999
2 31574  51.9939 282.9582 0000924 307.4430 220.0663 11.91653479850671
GLOBALSTAR M071         
1 31576U 07020F   25329.50750302 -.00000110  00000+0 -18393-3 0  9994
2 31576  52.0029 138.7825 0002005  87.9820 305.9154 12.18262449514609
